OBJECT_NAME,OBJECT_ID,EPOCH,MEAN_MOTION,ECCENTRICITY,INCLINATION,RA_OF_ASC_NODE,ARG_OF_PERICENTER,MEAN_ANOMALY,EPHEMERIS_TYPE,CLASSIFICATION_TYPE,NORAD_CAT_ID,ELEMENT_SET_NO,REV_AT_EPOCH,BSTAR,MEAN_MOTION_DOT,MEAN_MOTION_DDOT
TIANMU-1 20,2023-208B,2026-06-18T13:33:41.920992,15.32781178,.00059039,97.4452,286.5084,328.1882,31.9002,0,U,58661,999,13763,.20073967E-3,.6278E-4,0
TIANMU-1 21,2023-208C,2026-06-18T13:13:55.522848,15.35096288,.00058642,97.4512,289.1810,318.0096,42.0697,0,U,58662,999,13777,.22070136E-3,.7438E-4,0
TIANMU-1 22,2023-208D,2026-06-18T13:49:19.673760,15.31073695,.00030549,97.4506,285.8175,358.7867,1.3366,0,U,58663,999,13754,.19703405E-3,.5837E-4,0
TIANMU-1 15,2024-004A,2026-06-18T14:32:20.332896,15.27035319,.00065598,97.4669,355.7959,357.4669,2.6536,0,U,58700,999,13599,.17023115E-3,.4443E-4,0
TIANMU-1 16,2024-004B,2026-06-18T14:17:12.479712,15.26760188,.00056892,97.4615,355.0207,3.1420,356.9853,0,U,58701,999,13599,.17309135E-3,.448E-4,0
TIANMU-1 17,2024-004C,2026-06-18T13:56:15.719136,15.26759317,.00053835,97.4643,355.4916,9.6863,350.4479,0,U,58702,999,13598,.17057459E-3,.4414E-4,0
TIANMU-1 18,2024-004D,2026-06-18T14:56:17.295360,15.27017014,.00038915,97.4661,355.7897,10.7060,349.4261,0,U,58703,999,13599,.16353889E-3,.4261E-4,0
INSAT-3DS,2024-033A,2026-06-18T09:53:27.370176,1.00271262,.00010553,0.0448,107.3413,329.1695,60.6037,0,U,58990,999,4708,0,-.162E-5,0
METEOR-M2 4,2024-039A,2026-06-18T14:09:59.690016,14.22429656,.00073706,98.7011,128.8707,157.0729,203.0779,0,U,59051,999,11946,.22546591E-4,.6E-7,0
GOES 19,2024-119A,2026-06-18T14:16:29.773056,1.00270829,.00003529,0.0409,169.8991,4.4442,231.4208,0,U,60133,999,697,0,-.254E-5,0
MTG-S1,2025-143A,2026-06-17T23:13:03.747936,1.00270537,.00007875,0.6022,339.1600,17.8158,254.0253,0,U,64723,999,342,0,-.37E-6,0
METOP-SGA1,2025-172A,2026-06-16T03:40:47.624736,14.21509720,.0000902,98.6644,226.8998,93.8213,266.3067,0,U,65159,999,4364,.41999845E-4,.49E-6,0
FENGYUN 3H,2025-219A,2026-06-18T14:11:29.496768,14.19920628,.00015987,98.6768,110.3332,76.1674,283.9681,0,U,65815,999,3758,.39168498E-4,.4E-6,0
