TIANMU-1 20             
1 58661U 23208B   26169.56506853  .00006278  00000+0  20074-3 0  9991
2 58661  97.4452 286.5084 0005903 328.1882  31.9002 15.32781178137639
TIANMU-1 21             
1 58662U 23208C   26169.55133707  .00007438  00000+0  22070-3 0  9992
2 58662  97.4512 289.1810 0005864 318.0096  42.0697 15.35096288137776
TIANMU-1 22             
1 58663U 23208D   26169.57592215  .00005837  00000+0  19703-3 0  9998
2 58663  97.4506 285.8175 0003054 358.7867   1.3366 15.31073695137542
TIANMU-1 15             
1 58700U 24004A   26169.60579089  .00004443  00000+0  17023-3 0  9998
2 58700  97.4669 355.7959 0006559 357.4669   2.6536 15.27035319135996
TIANMU-1 16             
1 58701U 24004B   26169.59528333  .00004480  00000+0  17309-3 0  9991
2 58701  97.4615 355.0207 0005689   3.1420 356.9853 15.26760188135995
TIANMU-1 17             
1 58702U 24004C   26169.58073749  .00004414  00000+0  17057-3 0  9994
2 58702  97.4643 355.4916 0005383   9.6863 350.4479 15.26759317135985
TIANMU-1 18             
1 58703U 24004D   26169.62242240  .00004261  00000+0  16354-3 0  9993
2 58703  97.4661 355.7897 0003891  10.7060 349.4261 15.27017014135991
INSAT-3DS               
1 58990U 24033A   26169.41212234 -.00000162  00000+0  00000+0 0  9994
2 58990   0.0448 107.3413 0001055 329.1695  60.6037  1.00271262 47086
METEOR-M2 4             
1 59051U 24039A   26169.59027419  .00000006  00000+0  22547-4 0  9998
2 59051  98.7011 128.8707 0007370 157.0729 203.0779 14.22429656119469
GOES 19                 
1 60133U 24119A   26169.59478904 -.00000254  00000+0  00000+0 0  9990
2 60133   0.0409 169.8991 0000352   4.4442 231.4208  1.00270829  6970
MTG-S1                  
1 64723U 25143A   26168.96740449 -.00000037  00000+0  00000+0 0  9992
2 64723   0.6022 339.1600 0000787  17.8158 254.0253  1.00270537  3423
METOP-SGA1              
1 65159U 25172A   26167.15332899  .00000049  00000+0  42000-4 0  9997
2 65159  98.6644 226.8998 0000902  93.8213 266.3067 14.21509720 43644
FENGYUN 3H              
1 65815U 25219A   26169.59131362  .00000040  00000+0  39168-4 0  9992
2 65815  98.6768 110.3332 0001598  76.1674 283.9681 14.19920628 37580
